[{"OBJECT_NAME":"STARLINK-31341","OBJECT_ID":"2024-044D","EPOCH":"2026-03-09T02:36:23.167872","MEAN_MOTION":15.27576268,"ECCENTRICITY":7.047e-5,"INCLINATION":42.9999,"RA_OF_ASC_NODE":114.0181,"ARG_OF_PERICENTER":228.2459,"MEAN_ANOMALY":131.8332,"EPHEMERIS_TYPE":0,"CLASSIFICATION_TYPE":"U","NORAD_CAT_ID":59155,"ELEMENT_SET_NO":999,"REV_AT_EPOCH":11343,"BSTAR":-3.001456e-5,"MEAN_MOTION_DOT":-1.087e-5,"MEAN_MOTION_DDOT":0},{"OBJECT_NAME":"ELECTRON KICK STAGE R\/B","OBJECT_ID":"2024-047B","EPOCH":"2026-03-09T21:11:54.433824","MEAN_MOTION":15.27307897,"ECCENTRICITY":0.00092426,"INCLINATION":97.6338,"RA_OF_ASC_NODE":46.9382,"ARG_OF_PERICENTER":20.6031,"MEAN_ANOMALY":339.5579,"EPHEMERIS_TYPE":0,"CLASSIFICATION_TYPE":"U","NORAD_CAT_ID":59225,"ELEMENT_SET_NO":999,"REV_AT_EPOCH":10999,"BSTAR":0.00091229405,"MEAN_MOTION_DOT":0.00024409,"MEAN_MOTION_DDOT":0}]
